NORAD_CAT_ID,OBJECT_NAME,OBJECT_TYPE,EPOCH,MEAN_MOTION,ECCENTRICITY,INCLINATION,RA_OF_ASC_NODE,ARG_OF_PERICENTER,MEAN_ANOMALY,BSTAR,MEAN_MOTION_DOT,MEAN_MOTION_DDOT,TLE_LINE0,TLE_LINE1,TLE_LINE2,SEMIMAJOR_AXIS,PERIOD,APOGEE,PERIGEE,DECAYED
53422.0,STARLINK-4546,PAYLOAD,2024-01-22 08:07:04,15.08809935,0.0002004,53.2193,3.7861,89.6933,270.4289,0.0010069,0.0001576,0.0,0 STARLINK-4546,1 53422U 22097AL  24022.33824076  .00015760  00000-0  10069-2 0  9996,2 53422  53.2193   3.7861 0002004  89.6933 270.4289 15.08809935 80817,6917.972,95.439,541.224,538.451,0.0
53422.0,STARLINK-4546,PAYLOAD,2024-01-23 03:11:40,15.08837883,0.0002009,53.2208,0.2096,106.5217,253.5996,5.7364e-06,-1.97e-06,0.0,0 STARLINK-4546,1 53422U 22097AL  24023.13310961 -.00000197  00000-0  57364-5 0  9999,2 53422  53.2208   0.2096 0002009 106.5217 253.5996 15.08837883 80938,6917.887,95.438,541.142,538.362,0.0
53422.0,STARLINK-4546,PAYLOAD,2024-01-23 04:47:04,15.08838977,0.000224,53.2209,359.9225,68.7174,291.4057,3.3537e-05,2.45e-06,0.0,0 STARLINK-4546,1 53422U 22097AL  24023.19935370  .00000245  00000-0  33537-4 0  9990,2 53422  53.2209 359.9225 0002240  68.7174 291.4057 15.08838977 81424,6917.884,95.438,541.298,538.199,0.0
53422.0,STARLINK-4546,PAYLOAD,2024-01-24 03:02:27,15.08849745,0.0001707,53.2195,355.7616,108.8803,251.2375,4.4921e-05,4.27e-06,0.0,0 STARLINK-4546,1 53422U 22097AL  24024.12670489  .00000427  00000-0  44921-4 0  9992,2 53422  53.2195 355.7616 0001707 108.8803 251.2375 15.08849745 81082,6917.851,95.437,540.896,538.535,0.0
53422.0,STARLINK-4546,PAYLOAD,2024-01-24 04:37:50,15.0885268,0.0001714,53.2198,355.4622,104.3512,255.767,0.00010994,1.463e-05,0.0,0 STARLINK-4546,1 53422U 22097AL  24024.19294381  .00001463  00000-0  10994-3 0  9995,2 53422  53.2198 355.4622 0001714 104.3512 255.7670 15.08852680 81578,6917.842,95.437,540.892,538.521,0.0
53422.0,STARLINK-4546,PAYLOAD,2024-01-25 02:53:14,15.08844109,0.0001486,53.2181,351.295,108.9654,251.1499,0.0003538,5.348e-05,0.0,0 STARLINK-4546,1 53422U 22097AL  24025.12030528  .00005348  00000-0  35380-3 0  9992,2 53422  53.2181 351.2950 0001486 108.9654 251.1499 15.08844109 81230,6917.868,95.437,540.761,538.705,0.0
53422.0,STARLINK-4546,PAYLOAD,2024-01-25 04:28:37,15.08844744,0.0001469,53.2181,350.9978,105.0568,255.0587,0.00038301,5.814e-05,0.0,0 STARLINK-4546,1 53422U 22097AL  24025.18654518  .00005814  00000-0  38301-3 0  9993,2 53422  53.2181 350.9978 0001469 105.0568 255.0587 15.08844744 81729,6917.866,95.437,540.747,538.715,0.0
53422.0,STARLINK-4546,PAYLOAD,2024-01-26 02:44:01,15.08836269,0.0002031,53.2189,346.8386,131.892,228.2246,-9.7256e-05,-1.836e-05,0.0,0 STARLINK-4546,1 53422U 22097AL  24026.11390864 -.00001836  00000-0 -97256-4 0  9995,2 53422  53.2189 346.8386 0002031 131.8920 228.2246 15.08836269 81388,6917.892,95.438,541.162,538.352,0.0
53422.0,STARLINK-4546,PAYLOAD,2024-01-26 04:19:24,15.08835012,0.0001839,53.2187,346.5416,129.8403,230.2751,-0.00011413,-2.104e-05,0.0,0 STARLINK-4546,1 53422U 22097AL  24026.18014945 -.00002104  00000-0 -11413-3 0  9994,2 53422  53.2187 346.5416 0001839 129.8403 230.2751 15.08835012 81878,6917.896,95.438,541.033,538.488,0.0
53422.0,STARLINK-4546,PAYLOAD,2024-01-27 02:34:49,15.08839162,0.0001403,53.2183,342.3728,109.1711,250.9433,4.1466e-05,3.72e-06,0.0,0 STARLINK-4546,1 53422U 22097AL  24027.10751243  .00000372  00000-0  41466-4 0  9991,2 53422  53.2183 342.3728 0001403 109.1711 250.9433 15.08839162 82017,6917.883,95.438,540.719,538.777,0.0
53422.0,STARLINK-4546,PAYLOAD,2024-01-28 04:00:59,15.08844991,0.00012,53.2179,337.6176,89.5701,270.5429,0.00024098,3.55e-05,0.0,0 STARLINK-4546,1 53422U 22097AL  24028.16735333  .00003550  00000-0  24098-3 0  9992,2 53422  53.2179 337.6176 0001200  89.5701 270.5429 15.08844991 81693,6917.865,95.437,540.56,538.9,0.0
53422.0,STARLINK-4546,PAYLOAD,2024-01-28 05:36:22,15.08846496,0.0001217,53.218,337.3203,94.8909,265.2222,0.00026477,3.929e-05,0.0,0 STARLINK-4546,1 53422U 22097AL  24028.23359281  .00003929  00000-0  26477-3 0  9997,2 53422  53.2180 337.3203 0001217  94.8909 265.2222 15.08846496 82189,6917.861,95.437,540.567,538.884,0.0
53422.0,STARLINK-4546,PAYLOAD,2024-01-29 02:16:23,15.08841751,0.0001626,53.2185,333.4565,89.4066,270.7112,0.0001175,1.583e-05,0.0,0 STARLINK-4546,1 53422U 22097AL  24029.09471807  .00001583  00000-0  11750-3 0  9993,2 53422  53.2185 333.4565 0001626  89.4066 270.7112 15.08841751 81839,6917.875,95.437,540.865,538.615,0.0
53422.0,STARLINK-4546,PAYLOAD,2024-01-29 19:45:40,15.08809686,0.0001695,53.2175,330.1868,88.3712,271.7474,-0.00035873,-5.988e-05,0.0,0 STARLINK-4546,1 53422U 22097AL  24029.82338225 -.00005988  00000-0 -35873-3 0  9997,2 53422  53.2175 330.1868 0001695  88.3712 271.7474 15.08809686 81945,6917.973,95.439,541.011,538.665,0.0
53422.0,STARLINK-4546,PAYLOAD,2024-01-30 02:07:11,15.08845873,0.0001643,53.2194,328.9951,99.7446,260.3732,0.0002441,3.6e-05,0.0,0 STARLINK-4546,1 53422U 22097AL  24030.08832828  .00003600  00000-0  24410-3 0  9997,2 53422  53.2194 328.9951 0001643  99.7446 260.3732 15.08845873 81980,6917.862,95.437,540.864,538.591,0.0
53422.0,STARLINK-4546,PAYLOAD,2024-01-30 05:17:57,15.08845249,0.000163,53.2191,328.4013,94.7565,265.3614,0.00023987,3.532e-05,0.0,0 STARLINK-4546,1 53422U 22097AL  24030.22080931  .00003532  00000-0  23987-3 0  9995,2 53422  53.2191 328.4013 0001630  94.7565 265.3614 15.08845249 82481,6917.864,95.437,540.857,538.602,0.0
53422.0,STARLINK-4546,PAYLOAD,2024-01-30 22:47:10,15.08863048,0.00015,53.2181,325.1302,59.4109,300.7031,0.00022918,3.364e-05,0.0,0 STARLINK-4546,1 53422U 22097AL  24030.94943088  .00003364  00000-0  22918-3 0  9991,2 53422  53.2181 325.1302 0001500  59.4109 300.7031 15.08863048 82599,6917.81,95.436,540.713,538.637,0.0
53422.0,STARLINK-4546,PAYLOAD,2024-01-31 01:57:57,15.08870337,0.0001497,53.2189,324.5375,104.9357,255.1801,0.00046149,7.07e-05,0.0,0 STARLINK-4546,1 53422U 22097AL  24031.08191204  .00007070  00000-0  46149-3 0  9992,2 53422  53.2189 324.5375 0001497 104.9357 255.1801 15.08870337 82133,6917.788,95.436,540.688,538.617,0.0
53422.0,STARLINK-4546,PAYLOAD,2024-01-31 05:08:43,15.08875668,0.0001426,53.2176,323.9403,100.3812,259.7341,0.00058547,9.051e-05,0.0,0 STARLINK-4546,1 53422U 22097AL  24031.21438913  .00009051  00000-0  58547-3 0  9994,2 53422  53.2176 323.9403 0001426 100.3812 259.7341 15.08875668 82638,6917.771,95.435,540.623,538.65,0.0
53422.0,STARLINK-4546,PAYLOAD,2024-01-31 19:27:12,15.08846157,0.0001613,53.2183,321.2659,76.2672,283.85,-0.00018644,-3.255e-05,0.0,0 STARLINK-4546,1 53422U 22097AL  24031.81056154 -.00003255  00000-0 -18644-3 0  9999,2 53422  53.2183 321.2659 0001613  76.2672 283.8500 15.08846157 82246,6917.862,95.437,540.842,538.611,0.0
53422.0,STARLINK-4546,PAYLOAD,2024-02-01 01:48:45,15.08843428,0.0001199,53.2179,320.0765,77.3024,282.8102,-0.00018926,-3.299e-05,0.0,0 STARLINK-4546,1 53422U 22097AL  24032.07552119 -.00003299  00000-0 -18926-3 0  9991,2 53422  53.2179 320.0765 0001199  77.3024 282.8102 15.08843428 82760,6917.87,95.437,540.564,538.905,0.0
53422.0,STARLINK-4546,PAYLOAD,2024-02-01 19:17:59,15.08843879,0.0001018,53.2172,316.8042,99.318,260.7928,7.4669e-05,9.01e-06,0.0,0 STARLINK-4546,1 53422U 22097AL  24032.80415910  .00000901  00000-0  74669-4 0  9991,2 53422  53.2172 316.8042 0001018  99.3180 260.7928 15.08843879 82874,6917.869,95.437,540.438,539.029,0.0
53422.0,STARLINK-4546,PAYLOAD,2024-02-02 01:39:31,15.08853395,0.0001196,53.2179,315.6145,83.3346,276.7782,0.00041716,6.36e-05,0.0,0 STARLINK-4546,1 53422U 22097AL  24033.06911737  .00006360  00000-0  41716-3 0  9999,2 53422  53.2179 315.6145 0001196  83.3346 276.7782 15.08853395 82437,6917.839,95.437,540.532,538.877,0.0
53422.0,STARLINK-4546,PAYLOAD,2024-02-02 19:08:46,15.08844109,0.0001236,53.2173,312.3441,109.9578,250.1547,0.00017985,2.576e-05,0.0,0 STARLINK-4546,1 53422U 22097AL  24033.79775946  .00002576  00000-0  17985-3 0  9995,2 53422  53.2173 312.3441 0001236 109.9578 250.1547 15.08844109 82541,6917.868,95.437,540.588,538.878,0.0
53422.0,STARLINK-4546,PAYLOAD,2024-02-02 22:19:32,15.08844748,0.0001343,53.2176,311.7511,115.692,244.421,0.00021182,3.085e-05,0.0,0 STARLINK-4546,1 53422U 22097AL  24033.93023956  .00003085  00000-0  21182-3 0  9998,2 53422  53.2176 311.7511 0001343 115.6920 244.4210 15.08844748 83047,6917.866,95.437,540.66,538.802,0.0
53422.0,STARLINK-4546,PAYLOAD,2024-02-03 04:41:05,15.08845755,0.0001223,53.2173,310.5602,114.7186,245.3934,0.00019972,2.893e-05,0.0,0 STARLINK-4546,1 53422U 22097AL  24034.19519851  .00002893  00000-0  19972-3 0  9991,2 53422  53.2173 310.5602 0001223 114.7186 245.3934 15.08845755 83089,6917.863,95.437,540.574,538.882,0.0
53422.0,STARLINK-4546,PAYLOAD,2024-02-03 22:10:19,15.08840399,0.0001425,53.2175,307.2872,115.2388,244.8752,8.3701e-05,1.044e-05,0.0,0 STARLINK-4546,1 53422U 22097AL  24034.92384071  .00001044  00000-0  83701-4 0  9995,2 53422  53.2175 307.2872 0001425 115.2388 244.8752 15.08840399 83190,6917.879,95.438,540.73,538.758,0.0
53422.0,STARLINK-4546,PAYLOAD,2024-02-04 01:21:06,15.08843307,0.0001068,53.2165,306.6914,93.1063,267.0052,8.642e-05,1.088e-05,0.0,0 STARLINK-4546,1 53422U 22097AL  24035.05632010  .00001088  00000-0  86420-4 0  9998,2 53422  53.2165 306.6914 0001068  93.1063 267.0052 15.08843307 82737,6917.87,95.437,540.474,538.996,0.0
53422.0,STARLINK-4546,PAYLOAD,2024-02-04 22:01:07,15.08834363,0.000117,53.2164,302.8252,84.799,275.3136,0.00054086,8.329e-05,0.0,0 STARLINK-4546,1 53422U 22097AL  24035.91744708  .00008329  00000-0  54086-3 0  9998,2 53422  53.2164 302.8252 0001170  84.7990 275.3136 15.08834363 83343,6917.898,95.438,540.572,538.953,0.0
53422.0,STARLINK-4546,PAYLOAD,2024-02-05 02:47:16,15.08849935,0.0001153,53.2168,301.9333,97.9118,262.2005,0.00023539,3.461e-05,0.0,0 STARLINK-4546,1 53422U 22097AL  24036.11615785  .00003461  00000-0  23539-3 0  9994,2 53422  53.2168 301.9333 0001153  97.9118 262.2005 15.08849935 82896,6917.85,95.437,540.513,538.917,0.0
